FENGYUN 1C DEB          
1 29903U 99025GZ  23258.19568024  .00014260  00000+0  26446-2 0  9999
2 29903  98.9644 328.3462 0069407 201.5263 158.3015 14.63808791879473
FENGYUN 1C DEB          
1 29904U 99025HA  23258.51555215  .00001217  00000+0  30934-3 0  9990
2 29904  99.0436 234.6502 0223144 220.8399 137.5881 14.39016097872581
FENGYUN 1C DEB          
1 29906U 99025HC  23258.20127986  .00006168  00000+0  23523-2 0  9993
2 29906  98.7273 337.2797 0049355  66.5247 294.1111 14.30482032863674
FENGYUN 1C DEB          
1 29907U 99025HD  23258.13159892  .00002979  00000+0  18141-2 0  9993
2 29907  99.1690 303.1892 0090123  17.9253  40.9769 14.04917414850622
FENGYUN 1C DEB          
1 29909U 99025HF  23258.53062295  .00005040  00000+0  17723-2 0  9996
2 29909  98.6576 338.2678 0053709 316.6965 170.8471 14.34526710865908
FENGYUN 1C DEB          
1 29911U 99025HH  23258.11908168  .00001392  00000+0  74156-3 0  9991
2 29911  98.8005 302.9398 0027412 337.8150  76.8334 14.14813023858246
FENGYUN 1C DEB          
1 29912U 99025HJ  23258.50085076  .00004149  00000+0  16635-2 0  9999
2 29912  98.7680 333.8551 0053228 116.7597   9.2610 14.28024678862878
FENGYUN 1C DEB          
1 29913U 99025HK  23258.47351302  .00000522  00000+0  33900-3 0  9990
2 29913  98.7889 270.0834 0065055  55.6045 104.2960 14.05812980854473
FENGYUN 1C DEB          
1 29914U 99025HL  23258.57906420  .00000274  00000+0  20579-3 0  9991
2 29914  98.9447 295.2691 0035252 236.3849 277.3730 14.02484377853010
FENGYUN 1C DEB          
1 29916U 99025HN  23258.41338398  .00000885  00000+0  10465-2 0  9999
2 29916  99.2836 316.8729 0275749 187.9589 305.3481 13.55400375823463
FENGYUN 1C DEB          
1 29917U 99025HP  23258.03251384  .00001309  00000+0  13375-2 0  9992
2 29917  98.9218 170.3074 0231427 121.2093 254.6639 13.67072685829162
FENGYUN 1C DEB          
1 29918U 99025HQ  23258.42000326  .00003702  00000+0  16398-2 0  9991
2 29918  98.9148 315.4160 0017336 177.3451 248.9171 14.23663978860968
FENGYUN 1C DEB          
1 29919U 99025HR  23258.62220057  .00000238  00000+0  22786-3 0  9999
2 29919  98.4913 121.5687 0139837  65.5703 354.8418 13.84470539842105
FENGYUN 1C DEB          
1 29920U 99025HS  23257.02357873  .00002695  00000+0  17434-2 0  9993
2 29920  98.4592 162.3632 0137478  73.7800 287.8443 13.99021288847928
FENGYUN 1C DEB          
1 29921U 99025HT  23258.54428797  .00000413  00000+0  28140-3 0  9999
2 29921  98.8191 277.2228 0046124 207.4504 304.6686 14.04897483853782
FENGYUN 1C DEB          
1 29922U 99025HU  23258.19195610  .00000540  00000+0  39761-3 0  9998
2 29922  99.2494 303.3681 0095244  91.2965 269.9111 13.97791935849883
