[{"OBJECT_NAME":"FENGYUN 1C DEB","OBJECT_ID":"1999-025GZ","EPOCH":"2023-09-15T04:41:46.772736","MEAN_MOTION":14.63808791,"ECCENTRICITY":0.0069407,"INCLINATION":98.9644,"RA_OF_ASC_NODE":328.3462,"ARG_OF_PERICENTER":201.5263,"MEAN_ANOMALY":158.3015,"EPHEMERIS_TYPE":0,"CLASSIFICATION_TYPE":"U","NORAD_CAT_ID":29903,"ELEMENT_SET_NO":999,"REV_AT_EPOCH":87947,"BSTAR":0.0026446,"MEAN_MOTION_DOT":0.0001426,"MEAN_MOTION_DDOT":0},{"OBJECT_NAME":"FENGYUN 1C DEB","OBJECT_ID":"1999-025HA","EPOCH":"2023-09-15T12:22:23.705760","MEAN_MOTION":14.39016097,"ECCENTRICITY":0.0223144,"INCLINATION":99.0436,"RA_OF_ASC_NODE":234.6502,"ARG_OF_PERICENTER":220.8399,"MEAN_ANOMALY":137.5881,"EPHEMERIS_TYPE":0,"CLASSIFICATION_TYPE":"U","NORAD_CAT_ID":29904,"ELEMENT_SET_NO":999,"REV_AT_EPOCH":87258,"BSTAR":0.00030934,"MEAN_MOTION_DOT":1.217e-5,"MEAN_MOTION_DDOT":0},{"OBJECT_NAME":"FENGYUN 1C DEB","OBJECT_ID":"1999-025HC","EPOCH":"2023-09-15T04:49:50.579904","MEAN_MOTION":14.30482032,"ECCENTRICITY":0.0049355,"INCLINATION":98.7273,"RA_OF_ASC_NODE":337.2797,"ARG_OF_PERICENTER":66.5247,"MEAN_ANOMALY":294.1111,"EPHEMERIS_TYPE":0,"CLASSIFICATION_TYPE":"U","NORAD_CAT_ID":29906,"ELEMENT_SET_NO":999,"REV_AT_EPOCH":86367,"BSTAR":0.0023523,"MEAN_MOTION_DOT":6.168e-5,"MEAN_MOTION_DDOT":0},{"OBJECT_NAME":"FENGYUN 1C DEB","OBJECT_ID":"1999-025HD","EPOCH":"2023-09-15T03:09:30.146688","MEAN_MOTION":14.04917414,"ECCENTRICITY":0.0090123,"INCLINATION":99.169,"RA_OF_ASC_NODE":303.1892,"ARG_OF_PERICENTER":17.9253,"MEAN_ANOMALY":40.9769,"EPHEMERIS_TYPE":0,"CLASSIFICATION_TYPE":"U","NORAD_CAT_ID":29907,"ELEMENT_SET_NO":999,"REV_AT_EPOCH":85062,"BSTAR":0.0018141,"MEAN_MOTION_DOT":2.979e-5,"MEAN_MOTION_DDOT":0},{"OBJECT_NAME":"FENGYUN 1C DEB","OBJECT_ID":"1999-025HF","EPOCH":"2023-09-15T12:44:05.822880","MEAN_MOTION":14.3452671,"ECCENTRICITY":0.0053709,"INCLINATION":98.6576,"RA_OF_ASC_NODE":338.2678,"ARG_OF_PERICENTER":316.6965,"MEAN_ANOMALY":170.8471,"EPHEMERIS_TYPE":0,"CLASSIFICATION_TYPE":"U","NORAD_CAT_ID":29909,"ELEMENT_SET_NO":999,"REV_AT_EPOCH":86590,"BSTAR":0.0017723,"MEAN_MOTION_DOT":5.04e-5,"MEAN_MOTION_DDOT":0},{"OBJECT_NAME":"FENGYUN 1C DEB","OBJECT_ID":"1999-025HH","EPOCH":"2023-09-15T02:51:28.657152","MEAN_MOTION":14.14813023,"ECCENTRICITY":0.0027412,"INCLINATION":98.8005,"RA_OF_ASC_NODE":302.9398,"ARG_OF_PERICENTER":337.815,"MEAN_ANOMALY":76.8334,"EPHEMERIS_TYPE":0,"CLASSIFICATION_TYPE":"U","NORAD_CAT_ID":29911,"ELEMENT_SET_NO":999,"REV_AT_EPOCH":85824,"BSTAR":0.00074156,"MEAN_MOTION_DOT":1.392e-5,"MEAN_MOTION_DDOT":0},{"OBJECT_NAME":"FENGYUN 1C DEB","OBJECT_ID":"1999-025HJ","EPOCH":"2023-09-15T12:01:13.505664","MEAN_MOTION":14.28024678,"ECCENTRICITY":0.0053228,"INCLINATION":98.768,"RA_OF_ASC_NODE":333.8551,"ARG_OF_PERICENTER":116.7597,"MEAN_ANOMALY":9.261,"EPHEMERIS_TYPE":0,"CLASSIFICATION_TYPE":"U","NORAD_CAT_ID":29912,"ELEMENT_SET_NO":999,"REV_AT_EPOCH":86287,"BSTAR":0.0016635,"MEAN_MOTION_DOT":4.149e-5,"MEAN_MOTION_DDOT":0},{"OBJECT_NAME":"FENGYUN 1C DEB","OBJECT_ID":"1999-025HK","EPOCH":"2023-09-15T11:21:51.524928","MEAN_MOTION":14.0581298,"ECCENTRICITY":0.0065055,"INCLINATION":98.7889,"RA_OF_ASC_NODE":270.0834,"ARG_OF_PERICENTER":55.6045,"MEAN_ANOMALY":104.296,"EPHEMERIS_TYPE":0,"CLASSIFICATION_TYPE":"U","NORAD_CAT_ID":29913,"ELEMENT_SET_NO":999,"REV_AT_EPOCH":85447,"BSTAR":0.000339,"MEAN_MOTION_DOT":5.22e-6,"MEAN_MOTION_DDOT":0},{"OBJECT_NAME":"FENGYUN 1C DEB","OBJECT_ID":"1999-025HL","EPOCH":"2023-09-15T13:53:51.146880","MEAN_MOTION":14.02484377,"ECCENTRICITY":0.0035252,"INCLINATION":98.9447,"RA_OF_ASC_NODE":295.2691,"ARG_OF_PERICENTER":236.3849,"MEAN_ANOMALY":277.373,"EPHEMERIS_TYPE":0,"CLASSIFICATION_TYPE":"U","NORAD_CAT_ID":29914,"ELEMENT_SET_NO":999,"REV_AT_EPOCH":85301,"BSTAR":0.00020579,"MEAN_MOTION_DOT":2.74e-6,"MEAN_MOTION_DDOT":0},{"OBJECT_NAME":"FENGYUN 1C DEB","OBJECT_ID":"1999-025HN","EPOCH":"2023-09-15T09:55:16.375872","MEAN_MOTION":13.55400375,"ECCENTRICITY":0.0275749,"INCLINATION":99.2836,"RA_OF_ASC_NODE":316.8729,"ARG_OF_PERICENTER":187.9589,"MEAN_ANOMALY":305.3481,"EPHEMERIS_TYPE":0,"CLASSIFICATION_TYPE":"U","NORAD_CAT_ID":29916,"ELEMENT_SET_NO":999,"REV_AT_EPOCH":82346,"BSTAR":0.0010465,"MEAN_MOTION_DOT":8.85e-6,"MEAN_MOTION_DDOT":0},{"OBJECT_NAME":"FENGYUN 1C DEB","OBJECT_ID":"1999-025HP","EPOCH":"2023-09-15T00:46:49.195776","MEAN_MOTION":13.67072685,"ECCENTRICITY":0.0231427,"INCLINATION":98.9218,"RA_OF_ASC_NODE":170.3074,"ARG_OF_PERICENTER":121.2093,"MEAN_ANOMALY":254.6639,"EPHEMERIS_TYPE":0,"CLASSIFICATION_TYPE":"U","NORAD_CAT_ID":29917,"ELEMENT_SET_NO":999,"REV_AT_EPOCH":82916,"BSTAR":0.0013375,"MEAN_MOTION_DOT":1.309e-5,"MEAN_MOTION_DDOT":0},{"OBJECT_NAME":"FENGYUN 1C DEB","OBJECT_ID":"1999-025HQ","EPOCH":"2023-09-15T10:04:48.281664","MEAN_MOTION":14.23663978,"ECCENTRICITY":0.0017336,"INCLINATION":98.9148,"RA_OF_ASC_NODE":315.416,"ARG_OF_PERICENTER":177.3451,"MEAN_ANOMALY":248.9171,"EPHEMERIS_TYPE":0,"CLASSIFICATION_TYPE":"U","NORAD_CAT_ID":29918,"ELEMENT_SET_NO":999,"REV_AT_EPOCH":86096,"BSTAR":0.0016398,"MEAN_MOTION_DOT":3.702e-5,"MEAN_MOTION_DDOT":0},{"OBJECT_NAME":"FENGYUN 1C DEB","OBJECT_ID":"1999-025HR","EPOCH":"2023-09-15T14:55:58.129248","MEAN_MOTION":13.84470539,"ECCENTRICITY":0.0139837,"INCLINATION":98.4913,"RA_OF_ASC_NODE":121.5687,"ARG_OF_PERICENTER":65.5703,"MEAN_ANOMALY":354.8418,"EPHEMERIS_TYPE":0,"CLASSIFICATION_TYPE":"U","NORAD_CAT_ID":29919,"ELEMENT_SET_NO":999,"REV_AT_EPOCH":84210,"BSTAR":0.00022786,"MEAN_MOTION_DOT":2.38e-6,"MEAN_MOTION_DDOT":0},{"OBJECT_NAME":"FENGYUN 1C DEB","OBJECT_ID":"1999-025HS","EPOCH":"2023-09-14T00:33:57.202272","MEAN_MOTION":13.99021288,"ECCENTRICITY":0.0137478,"INCLINATION":98.4592,"RA_OF_ASC_NODE":162.3632,"ARG_OF_PERICENTER":73.78,"MEAN_ANOMALY":287.8443,"EPHEMERIS_TYPE":0,"CLASSIFICATION_TYPE":"U","NORAD_CAT_ID":29920,"ELEMENT_SET_NO":999,"REV_AT_EPOCH":84792,"BSTAR":0.0017434,"MEAN_MOTION_DOT":2.695e-5,"MEAN_MOTION_DDOT":0},{"OBJECT_NAME":"FENGYUN 1C DEB","OBJECT_ID":"1999-025HT","EPOCH":"2023-09-15T13:03:46.480608","MEAN_MOTION":14.04897483,"ECCENTRICITY":0.0046124,"INCLINATION":98.8191,"RA_OF_ASC_NODE":277.2228,"ARG_OF_PERICENTER":207.4504,"MEAN_ANOMALY":304.6686,"EPHEMERIS_TYPE":0,"CLASSIFICATION_TYPE":"U","NORAD_CAT_ID":29921,"ELEMENT_SET_NO":999,"REV_AT_EPOCH":85378,"BSTAR":0.0002814,"MEAN_MOTION_DOT":4.13e-6,"MEAN_MOTION_DDOT":0},{"OBJECT_NAME":"FENGYUN 1C DEB","OBJECT_ID":"1999-025HU","EPOCH":"2023-09-15T04:36:25.007040","MEAN_MOTION":13.97791935,"ECCENTRICITY":0.0095244,"INCLINATION":99.2494,"RA_OF_ASC_NODE":303.3681,"ARG_OF_PERICENTER":91.2965,"MEAN_ANOMALY":269.9111,"EPHEMERIS_TYPE":0,"CLASSIFICATION_TYPE":"U","NORAD_CAT_ID":29922,"ELEMENT_SET_NO":999,"REV_AT_EPOCH":84988,"BSTAR":0.00039761,"MEAN_MOTION_DOT":5.4e-6,"MEAN_MOTION_DDOT":0}]
